OBJECT_ID                       = 1958-002B
EPOCH                           = 2020-05-05T19:33:04.042368
MEAN_MOTION                     = 10.84842166
ECCENTRICITY                    = 0.1847113
INCLINATION                     = 34.2494
RA_OF_ASC_NODE                  = 359.6658
ARG_OF_PERICENTER               = 160.4367
MEAN_ANOMALY                    = 207.7732
EPHEMERIS_TYPE                  = 0
CLASSIFICATION_TYPE             = U
NORAD_CAT_ID                    = 5
ELEMENT_SET_NO                  = 999
REV_AT_EPOCH                    = 20062
BSTAR                           = 0.000231
MEAN_MOTION_DOT                 = 0.00000185
MEAN_MOTION_DDOT                = 0

OBJECT_ID                       = 1959-001A
EPOCH                           = 2020-05-05T17:07:41.757600
MEAN_MOTION                     = 11.85695065
ECCENTRICITY                    = 0.1468098
INCLINATION                     = 32.8669
RA_OF_ASC_NODE                  = 215.871
ARG_OF_PERICENTER               = 10.182
MEAN_ANOMALY                    = 352.5413
EPHEMERIS_TYPE                  = 0
CLASSIFICATION_TYPE             = U
NORAD_CAT_ID                    = 11
ELEMENT_SET_NO                  = 999
REV_AT_EPOCH                    = 26990
BSTAR                           = 0.000017255
MEAN_MOTION_DOT                 = 0.00000033
MEAN_MOTION_DDOT                = 0

OBJECT_ID                       = 1959-001B
EPOCH                           = 2020-05-05T10:50:27.171168
MEAN_MOTION                     = 11.4429228
ECCENTRICITY                    = 0.1665487
INCLINATION                     = 32.9023
RA_OF_ASC_NODE                  = 141.3677
ARG_OF_PERICENTER               = 209.8665
MEAN_ANOMALY                    = 139.572
EPHEMERIS_TYPE                  = 0
CLASSIFICATION_TYPE             = U
NORAD_CAT_ID                    = 12
ELEMENT_SET_NO                  = 999
REV_AT_EPOCH                    = 51762
BSTAR                           = 0.000043322
MEAN_MOTION_DOT                 = 0.00000106
MEAN_MOTION_DDOT                = 0

OBJECT_ID                       = 1958-002A
EPOCH                           = 2020-05-05T20:22:08.716800
MEAN_MOTION                     = 10.48692011
ECCENTRICITY                    = 0.2026378
INCLINATION                     = 34.2624
RA_OF_ASC_NODE                  = 277.5612
ARG_OF_PERICENTER               = 58.1371
MEAN_ANOMALY                    = 320.0639
EPHEMERIS_TYPE                  = 0
CLASSIFICATION_TYPE             = U
NORAD_CAT_ID                    = 16
ELEMENT_SET_NO                  = 999
REV_AT_EPOCH                    = 45436
BSTAR                           = -0.00020434
MEAN_MOTION_DOT                 = -0.00000168
MEAN_MOTION_DDOT                = 0

OBJECT_ID                       = 1959-007A
EPOCH                           = 2020-05-06T00:46:45.104736
MEAN_MOTION                     = 11.5567985
ECCENTRICITY                    = 0.1664963
INCLINATION                     = 33.3439
RA_OF_ASC_NODE                  = 333.172
ARG_OF_PERICENTER               = 41.6658
MEAN_ANOMALY                    = 329.9462
EPHEMERIS_TYPE                  = 0
CLASSIFICATION_TYPE             = U
NORAD_CAT_ID                    = 20
ELEMENT_SET_NO                  = 999
REV_AT_EPOCH                    = 22572
BSTAR                           = 0.00002158
MEAN_MOTION_DOT                 = 0.00000036
MEAN_MOTION_DDOT                = 0

OBJECT_ID                       = 1959-009A
EPOCH                           = 2020-05-06T04:40:00.850656
MEAN_MOTION                     = 14.95123513
ECCENTRICITY                    = 0.0139684
INCLINATION                     = 50.2837
RA_OF_ASC_NODE                  = 300.344
ARG_OF_PERICENTER               = 97.2941
MEAN_ANOMALY                    = 264.3907
EPHEMERIS_TYPE                  = 0
CLASSIFICATION_TYPE             = U
NORAD_CAT_ID                    = 22
ELEMENT_SET_NO                  = 999
REV_AT_EPOCH                    = 21900
BSTAR                           = 0.000040517
MEAN_MOTION_DOT                 = 0.0000023
MEAN_MOTION_DDOT                = 0

OBJECT_ID                       = 1960-002B
EPOCH                           = 2020-05-05T13:36:21.930336
MEAN_MOTION                     = 14.74353857
ECCENTRICITY                    = 0.0023537
INCLINATION                     = 48.3781
RA_OF_ASC_NODE                  = 151.0121
ARG_OF_PERICENTER               = 47.9747
MEAN_ANOMALY                    = 312.3164
EPHEMERIS_TYPE                  = 0
CLASSIFICATION_TYPE             = U
NORAD_CAT_ID                    = 29
ELEMENT_SET_NO                  = 999
REV_AT_EPOCH                    = 21233
BSTAR                           = 0.000011788
MEAN_MOTION_DOT                 = -0.00000129
MEAN_MOTION_DDOT                = 0

OBJECT_ID                       = 1960-007A
EPOCH                           = 2020-05-06T02:25:50.894400
MEAN_MOTION                     = 14.33674851
ECCENTRICITY                    = 0.0257792
INCLINATION                     = 66.6924
RA_OF_ASC_NODE                  = 132.5405
ARG_OF_PERICENTER               = 344.834
MEAN_ANOMALY                    = 14.513
EPHEMERIS_TYPE                  = 0
CLASSIFICATION_TYPE             = U
NORAD_CAT_ID                    = 45
ELEMENT_SET_NO                  = 999
REV_AT_EPOCH                    = 11663
BSTAR                           = 0.000014572
MEAN_MOTION_DOT                 = -0.0000005
MEAN_MOTION_DDOT                = 0

OBJECT_ID                       = 1960-007B
EPOCH                           = 2020-05-06T02:13:44.265216
MEAN_MOTION                     = 14.49292861
ECCENTRICITY                    = 0.0208027
INCLINATION                     = 66.6889
RA_OF_ASC_NODE                  = 160.9665
ARG_OF_PERICENTER               = 164.8506
MEAN_ANOMALY                    = 195.8964
EPHEMERIS_TYPE                  = 0
CLASSIFICATION_TYPE             = U
NORAD_CAT_ID                    = 46
ELEMENT_SET_NO                  = 999
REV_AT_EPOCH                    = 13296
BSTAR                           = 0.000024408
MEAN_MOTION_DOT                 = 0.00000006
MEAN_MOTION_DDOT                = 0

OBJECT_ID                       = 1960-007C
EPOCH                           = 2020-05-05T20:09:41.889024
MEAN_MOTION                     = 14.42084207
ECCENTRICITY                    = 0.0231452
INCLINATION                     = 66.6654
RA_OF_ASC_NODE                  = 268.9662
ARG_OF_PERICENTER               = 332.7776
MEAN_ANOMALY                    = 26.1344
EPHEMERIS_TYPE                  = 0
CLASSIFICATION_TYPE             = U
NORAD_CAT_ID                    = 47
ELEMENT_SET_NO                  = 999
REV_AT_EPOCH                    = 12853
BSTAR                           = 0.0000077084
MEAN_MOTION_DOT                 = -0.00000079
MEAN_MOTION_DDOT                = 0